{
"type": "FeatureCollection",
"name": "10km-mesh",
"crs": { "type": "name", "properties": { "name": "urn:ogc:def:crs:OGC:1.3:CRS84" } },
"features": [
{ "type": "Feature", "properties": { "id": 5.0, "left": -53322.9158, "top": 135742.2238, "right": -43322.9158, "bottom": 125742.2238 }, "geometry": { "type": "MultiPolygon", "coordinates": [ [ [ [ 136.56580439706849, 37.221827407356855 ], [ 136.678483920272811, 37.22234545111958 ], [ 136.679063409705662, 37.13223417615027 ], [ 136.566517623164145, 37.131717811312406 ], [ 136.56580439706849, 37.221827407356855 ] ] ] ] } },
{ "type": "Feature", "properties": { "id": 12.0, "left": -43322.9158, "top": 155742.2238, "right": -33322.9158, "bottom": 145742.2238 }, "geometry": { "type": "MultiPolygon", "coordinates": [ [ [ [ 136.677317176558859, 37.40256385358667 ], [ 136.7902685734214, 37.402977374998791 ], [ 136.790718299133374, 37.312867527616383 ], [ 136.677901846591283, 37.31245534400243 ], [ 136.677317176558859, 37.40256385358667 ] ] ] ] } },
{ "type": "Feature", "properties": { "id": 13.0, "left": -43322.9158, "top": 145742.2238, "right": -33322.9158, "bottom": 135742.2238 }, "geometry": { "type": "MultiPolygon", "coordinates": [ [ [ [ 136.677901846591283, 37.31245534400243 ], [ 136.790718299133374, 37.312867527616383 ], [ 136.791166027711512, 37.222756300076377 ], [ 136.678483920272811, 37.22234545111958 ], [ 136.677901846591283, 37.31245534400243 ] ] ] ] } },
{ "type": "Feature", "properties": { "id": 14.0, "left": -43322.9158, "top": 135742.2238, "right": -33322.9158, "bottom": 125742.2238 }, "geometry": { "type": "MultiPolygon", "coordinates": [ [ [ [ 136.678483920272811, 37.22234545111958 ], [ 136.791166027711512, 37.222756300076377 ], [ 136.791611768465202, 37.132643693573087 ], [ 136.679063409705662, 37.13223417615027 ], [ 136.678483920272811, 37.22234545111958 ] ] ] ] } },
{ "type": "Feature", "properties": { "id": 15.0, "left": -43322.9158, "top": 125742.2238, "right": -33322.9158, "bottom": 115742.2238 }, "geometry": { "type": "MultiPolygon", "coordinates": [ [ [ [ 136.679063409705662, 37.13223417615027 ], [ 136.791611768465202, 37.132643693573087 ], [ 136.792055530637953, 37.042529709314437 ], [ 136.679640326906366, 37.04212152032013 ], [ 136.679063409705662, 37.13223417615027 ] ] ] ] } },
{ "type": "Feature", "properties": { "id": 16.0, "left": -43322.9158, "top": 115742.2238, "right": -33322.9158, "bottom": 105742.2238 }, "geometry": { "type": "MultiPolygon", "coordinates": [ [ [ [ 136.679640326906366, 37.04212152032013 ], [ 136.792055530637953, 37.042529709314437 ], [ 136.792497323407844, 36.952414348521813 ], [ 136.680214683806383, 36.952007484868162 ], [ 136.679640326906366, 37.04212152032013 ] ] ] ] } },
{ "type": "Feature", "properties": { "id": 20.0, "left": -33322.9158, "top": 165742.2238, "right": -23322.9158, "bottom": 155742.2238 }, "geometry": { "type": "MultiPolygon", "coordinates": [ [ [ [ 136.789816841199581, 37.493085841042756 ], [ 136.902905800353921, 37.493392454662441 ], [ 136.903221976782589, 37.403282997543705 ], [ 136.7902685734214, 37.402977374998791 ], [ 136.789816841199581, 37.493085841042756 ] ] ] ] } },
{ "type": "Feature", "properties": { "id": 21.0, "left": -33322.9158, "top": 155742.2238, "right": -23322.9158, "bottom": 145742.2238 }, "geometry": { "type": "MultiPolygon", "coordinates": [ [ [ [ 136.7902685734214, 37.402977374998791 ], [ 136.903221976782589, 37.403282997543705 ], [ 136.903536748798302, 37.313172161421342 ], [ 136.790718299133374, 37.312867527616383 ], [ 136.7902685734214, 37.402977374998791 ] ] ] ] } },
{ "type": "Feature", "properties": { "id": 22.0, "left": -33322.9158, "top": 145742.2238, "right": -23322.9158, "bottom": 135742.2238 }, "geometry": { "type": "MultiPolygon", "coordinates": [ [ [ [ 136.790718299133374, 37.312867527616383 ], [ 136.903536748798302, 37.313172161421342 ], [ 136.903850122963632, 37.223059947462943 ], [ 136.791166027711512, 37.222756300076377 ], [ 136.790718299133374, 37.312867527616383 ] ] ] ] } },
{ "type": "Feature", "properties": { "id": 23.0, "left": -33322.9158, "top": 135742.2238, "right": -23322.9158, "bottom": 125742.2238 }, "geometry": { "type": "MultiPolygon", "coordinates": [ [ [ [ 136.791166027711512, 37.222756300076377 ], [ 136.903850122963632, 37.223059947462943 ], [ 136.90416210579474, 37.132946356849651 ], [ 136.791611768465202, 37.132643693573087 ], [ 136.791166027711512, 37.222756300076377 ] ] ] ] } },
{ "type": "Feature", "properties": { "id": 24.0, "left": -33322.9158, "top": 125742.2238, "right": -23322.9158, "bottom": 115742.2238 }, "geometry": { "type": "MultiPolygon", "coordinates": [ [ [ [ 136.791611768465202, 37.132643693573087 ], [ 136.90416210579474, 37.132946356849651 ], [ 136.904472703761513, 37.042831390776243 ], [ 136.792055530637953, 37.042529709314437 ], [ 136.791611768465202, 37.132643693573087 ] ] ] ] } },
{ "type": "Feature", "properties": { "id": 25.0, "left": -33322.9158, "top": 115742.2238, "right": -23322.9158, "bottom": 105742.2238 }, "geometry": { "type": "MultiPolygon", "coordinates": [ [ [ [ 136.792055530637953, 37.042529709314437 ], [ 136.904472703761513, 37.042831390776243 ], [ 136.904781923288198, 36.952715050451147 ], [ 136.792497323407844, 36.952414348521813 ], [ 136.792055530637953, 37.042529709314437 ] ] ] ] } },
{ "type": "Feature", "properties": { "id": 29.0, "left": -23322.9158, "top": 165742.2238, "right": -13322.9158, "bottom": 155742.2238 }, "geometry": { "type": "MultiPolygon", "coordinates": [ [ [ [ 136.902905800353921, 37.493392454662441 ], [ 137.015996170522925, 37.493590814458869 ], [ 137.016176784548975, 37.403480716172609 ], [ 136.903221976782589, 37.403282997543705 ], [ 136.902905800353921, 37.493392454662441 ] ] ] ] } },
{ "type": "Feature", "properties": { "id": 30.0, "left": -23322.9158, "top": 155742.2238, "right": -13322.9158, "bottom": 145742.2238 }, "geometry": { "type": "MultiPolygon", "coordinates": [ [ [ [ 136.903221976782589, 37.403282997543705 ], [ 137.016176784548975, 37.403480716172609 ], [ 137.016356596305769, 37.313369240393271 ], [ 136.903536748798302, 37.313172161421342 ], [ 136.903221976782589, 37.403282997543705 ] ] ] ] } },
{ "type": "Feature", "properties": { "id": 31.0, "left": -23322.9158, "top": 145742.2238, "right": -13322.9158, "bottom": 135742.2238 }, "geometry": { "type": "MultiPolygon", "coordinates": [ [ [ [ 136.903536748798302, 37.313172161421342 ], [ 137.016356596305769, 37.313369240393271 ], [ 137.016535609542331, 37.223256388279822 ], [ 136.903850122963632, 37.223059947462943 ], [ 136.903536748798302, 37.313172161421342 ] ] ] ] } },
{ "type": "Feature", "properties": { "id": 32.0, "left": -23322.9158, "top": 135742.2238, "right": -13322.9158, "bottom": 125742.2238 }, "geometry": { "type": "MultiPolygon", "coordinates": [ [ [ [ 136.903850122963632, 37.223059947462943 ], [ 137.016535609542331, 37.223256388279822 ], [ 137.016713827980965, 37.133142161004919 ], [ 136.90416210579474, 37.132946356849651 ], [ 136.903850122963632, 37.223059947462943 ] ] ] ] } },
{ "type": "Feature", "properties": { "id": 33.0, "left": -23322.9158, "top": 125742.2238, "right": -13322.9158, "bottom": 115742.2238 }, "geometry": { "type": "MultiPolygon", "coordinates": [ [ [ [ 136.90416210579474, 37.132946356849651 ], [ 137.016713827980965, 37.133142161004919 ], [ 137.016891255317688, 37.043026559754857 ], [ 136.904472703761513, 37.042831390776243 ], [ 136.90416210579474, 37.132946356849651 ] ] ] ] } },
{ "type": "Feature", "properties": { "id": 34.0, "left": -23322.9158, "top": 115742.2238, "right": -13322.9158, "bottom": 105742.2238 }, "geometry": { "type": "MultiPolygon", "coordinates": [ [ [ [ 136.904472703761513, 37.042831390776243 ], [ 137.016891255317688, 37.043026559754857 ], [ 137.017067895222368, 36.952909585729621 ], [ 136.904781923288198, 36.952715050451147 ], [ 136.904472703761513, 37.042831390776243 ] ] ] ] } },
{ "type": "Feature", "properties": { "id": 37.0, "left": -13322.9158, "top": 175742.2238, "right": -3322.9158, "bottom": 165742.2238 }, "geometry": { "type": "MultiPolygon", "coordinates": [ [ [ [ 137.015814750451824, 37.583699534106771 ], [ 137.129042097844319, 37.583789928731818 ], [ 137.129087346732433, 37.493680917149653 ], [ 137.015996170522925, 37.493590814458869 ], [ 137.015814750451824, 37.583699534106771 ] ] ] ] } },
{ "type": "Feature", "properties": { "id": 38.0, "left": -13322.9158, "top": 165742.2238, "right": -3322.9158, "bottom": 155742.2238 }, "geometry": { "type": "MultiPolygon", "coordinates": [ [ [ [ 137.015996170522925, 37.493590814458869 ], [ 137.129087346732433, 37.493680917149653 ], [ 137.129132394580125, 37.403570527619202 ], [ 137.016176784548975, 37.403480716172609 ], [ 137.015996170522925, 37.493590814458869 ] ] ] ] } },
{ "type": "Feature", "properties": { "id": 39.0, "left": -13322.9158, "top": 155742.2238, "right": -3322.9158, "bottom": 145742.2238 }, "geometry": { "type": "MultiPolygon", "coordinates": [ [ [ [ 137.016176784548975, 37.403480716172609 ], [ 137.129132394580125, 37.403570527619202 ], [ 137.129177242329121, 37.313458761281822 ], [ 137.016356596305769, 37.313369240393271 ], [ 137.016176784548975, 37.403480716172609 ] ] ] ] } },
{ "type": "Feature", "properties": { "id": 40.0, "left": -13322.9158, "top": 145742.2238, "right": -3322.9158, "bottom": 135742.2238 }, "geometry": { "type": "MultiPolygon", "coordinates": [ [ [ [ 137.016356596305769, 37.313369240393271 ], [ 137.129177242329121, 37.313458761281822 ], [ 137.129221890914522, 37.223345619292601 ], [ 137.016535609542331, 37.223256388279822 ], [ 137.016356596305769, 37.313369240393271 ] ] ] ] } },
{ "type": "Feature", "properties": { "id": 41.0, "left": -13322.9158, "top": 135742.2238, "right": -3322.9158, "bottom": 125742.2238 }, "geometry": { "type": "MultiPolygon", "coordinates": [ [ [ [ 137.016535609542331, 37.223256388279822 ], [ 137.129221890914522, 37.223345619292601 ], [ 137.129266341264696, 37.133231102820304 ], [ 137.016713827980965, 37.133142161004919 ], [ 137.016535609542331, 37.223256388279822 ] ] ] ] } },
{ "type": "Feature", "properties": { "id": 42.0, "left": -13322.9158, "top": 125742.2238, "right": -3322.9158, "bottom": 115742.2238 }, "geometry": { "type": "MultiPolygon", "coordinates": [ [ [ [ 137.016713827980965, 37.133142161004919 ], [ 137.129266341264696, 37.133231102820304 ], [ 137.129310594301558, 37.043115213047379 ], [ 137.016891255317688, 37.043026559754857 ], [ 137.016713827980965, 37.133142161004919 ] ] ] ] } },
{ "type": "Feature", "properties": { "id": 43.0, "left": -13322.9158, "top": 115742.2238, "right": -3322.9158, "bottom": 105742.2238 }, "geometry": { "type": "MultiPolygon", "coordinates": [ [ [ [ 137.016891255317688, 37.043026559754857 ], [ 137.129310594301558, 37.043115213047379 ], [ 137.129354650940371, 36.952997951170005 ], [ 137.017067895222368, 36.952909585729621 ], [ 137.016891255317688, 37.043026559754857 ] ] ] ] } },
{ "type": "Feature", "properties": { "id": 46.0, "left": -3322.9158, "top": 175742.2238, "right": 6677.0842, "bottom": 165742.2238 }, "geometry": { "type": "MultiPolygon", "coordinates": [ [ [ [ 137.129042097844319, 37.583789928731818 ], [ 137.242269647224617, 37.58377171400042 ], [ 137.242178723981255, 37.493662761243755 ], [ 137.129087346732433, 37.493680917149653 ], [ 137.129042097844319, 37.583789928731818 ] ] ] ] } },
{ "type": "Feature", "properties": { "id": 47.0, "left": -3322.9158, "top": 165742.2238, "right": 6677.0842, "bottom": 155742.2238 }, "geometry": { "type": "MultiPolygon", "coordinates": [ [ [ [ 137.129087346732433, 37.493680917149653 ], [ 137.242178723981255, 37.493662761243755 ], [ 137.242088204708836, 37.403552430399756 ], [ 137.129132394580125, 37.403570527619202 ], [ 137.129087346732433, 37.493680917149653 ] ] ] ] } },
{ "type": "Feature", "properties": { "id": 48.0, "left": -3322.9158, "top": 155742.2238, "right": 6677.0842, "bottom": 145742.2238 }, "geometry": { "type": "MultiPolygon", "coordinates": [ [ [ [ 137.129132394580125, 37.403570527619202 ], [ 137.242088204708836, 37.403552430399756 ], [ 137.241998087514986, 37.313440722610565 ], [ 137.129177242329121, 37.313458761281822 ], [ 137.129132394580125, 37.403570527619202 ] ] ] ] } },
{ "type": "Feature", "properties": { "id": 49.0, "left": -3322.9158, "top": 145742.2238, "right": 6677.0842, "bottom": 135742.2238 }, "geometry": { "type": "MultiPolygon", "coordinates": [ [ [ [ 137.129177242329121, 37.313458761281822 ], [ 137.241998087514986, 37.313440722610565 ], [ 137.241908370520832, 37.223327639032057 ], [ 137.129221890914522, 37.223345619292601 ], [ 137.129177242329121, 37.313458761281822 ] ] ] ] } },
{ "type": "Feature", "properties": { "id": 55.0, "left": 6677.0842, "top": 175742.2238, "right": 16677.0842, "bottom": 165742.2238 }, "geometry": { "type": "MultiPolygon", "coordinates": [ [ [ [ 137.242269647224617, 37.58377171400042 ], [ 137.355496790730371, 37.583644890214487 ], [ 137.355269697261463, 37.493536347041619 ], [ 137.242178723981255, 37.493662761243755 ], [ 137.242269647224617, 37.58377171400042 ] ] ] ] } },
{ "type": "Feature", "properties": { "id": 56.0, "left": 6677.0842, "top": 165742.2238, "right": 16677.0842, "bottom": 155742.2238 }, "geometry": { "type": "MultiPolygon", "coordinates": [ [ [ [ 137.242178723981255, 37.493662761243755 ], [ 137.355269697261463, 37.493536347041619 ], [ 137.355043612761222, 37.403426424813247 ], [ 137.242088204708836, 37.403552430399756 ], [ 137.242178723981255, 37.493662761243755 ] ] ] ] } },
{ "type": "Feature", "properties": { "id": 57.0, "left": 6677.0842, "top": 155742.2238, "right": 16677.0842, "bottom": 145742.2238 }, "geometry": { "type": "MultiPolygon", "coordinates": [ [ [ [ 137.242088204708836, 37.403552430399756 ], [ 137.355043612761222, 37.403426424813247 ], [ 137.35481853250343, 37.313315124676997 ], [ 137.241998087514986, 37.313440722610565 ], [ 137.242088204708836, 37.403552430399756 ] ] ] ] } },
{ "type": "Feature", "properties": { "id": 58.0, "left": 6677.0842, "top": 145742.2238, "right": 16677.0842, "bottom": 135742.2238 }, "geometry": { "type": "MultiPolygon", "coordinates": [ [ [ [ 137.241998087514986, 37.313440722610565 ], [ 137.35481853250343, 37.313315124676997 ], [ 137.354594451795265, 37.223202447794243 ], [ 137.241908370520832, 37.223327639032057 ], [ 137.241998087514986, 37.313440722610565 ] ] ] ] } },
{ "type": "Feature", "properties": { "id": 65.0, "left": 16677.0842, "top": 165742.2238, "right": 26677.0842, "bottom": 155742.2238 }, "geometry": { "type": "MultiPolygon", "coordinates": [ [ [ [ 137.355269697261463, 37.493536347041619 ], [ 137.468359661578546, 37.493301676635163 ], [ 137.467998016576843, 37.403192512941317 ], [ 137.355043612761222, 37.403426424813247 ], [ 137.355269697261463, 37.493536347041619 ] ] ] ] } }
]
}
